NORAD_CAT_ID,OBJECT_NAME,OBJECT_TYPE,EPOCH,MEAN_MOTION,ECCENTRICITY,INCLINATION,RA_OF_ASC_NODE,ARG_OF_PERICENTER,MEAN_ANOMALY,BSTAR,MEAN_MOTION_DOT,MEAN_MOTION_DDOT,TLE_LINE0,TLE_LINE1,TLE_LINE2,SEMIMAJOR_AXIS,PERIOD,APOGEE,PERIGEE,DECAYED
52477.0,STARLINK-3860,PAYLOAD,2023-09-04 04:06:16,15.08833366,0.0001526,53.216,208.0211,93.1915,266.9252,-8.4682e-06,-4.23e-06,0.0,0 STARLINK-3860,1 52477U 22049AC  23247.17102051 -.00000423  00000-0 -84682-5 0  9991,2 52477  53.2160 208.0211 0001526  93.1915 266.9252 15.08833366 75119,6917.901,95.438,540.821,538.71,0.0
52477.0,STARLINK-3860,PAYLOAD,2023-09-05 03:57:02,15.08844397,0.0001429,53.2174,203.5623,89.7349,270.3807,8.0188e-05,9.89e-06,0.0,0 STARLINK-3860,1 52477U 22049AC  23248.16461249  .00000989  00000-0  80188-4 0  9999,2 52477  53.2174 203.5623 0001429  89.7349 270.3807 15.08844397 74182,6917.867,95.437,540.721,538.743,0.0
52477.0,STARLINK-3860,PAYLOAD,2023-09-06 02:12:26,15.08836374,0.0001431,53.2177,199.3996,84.7552,275.3603,0.000141,1.957e-05,0.0,0 STARLINK-3860,1 52477U 22049AC  23249.09197827  .00001957  00000-0  14100-3 0  9996,2 52477  53.2177 199.3996 0001431  84.7552 275.3603 15.08836374 74325,6917.891,95.438,540.746,538.767,0.0
52477.0,STARLINK-3860,PAYLOAD,2023-09-06 03:47:49,15.08838864,0.000139,53.2174,199.1027,85.7396,274.3755,0.00015614,2.198e-05,0.0,0 STARLINK-3860,1 52477U 22049AC  23249.15821709  .00002198  00000-0  15614-3 0  9995,2 52477  53.2174 199.1027 0001390  85.7396 274.3755 15.08838864 75410,6917.884,95.438,540.71,538.787,0.0
52477.0,STARLINK-3860,PAYLOAD,2023-09-06 21:17:04,15.08835575,0.000146,53.2179,195.8332,97.4891,262.6267,6.657e-05,7.72e-06,0.0,0 STARLINK-3860,1 52477U 22049AC  23249.88686192  .00000772  00000-0  66570-4 0  9994,2 52477  53.2179 195.8332 0001460  97.4891 262.6267 15.08835575 75521,6917.894,95.438,540.769,538.749,0.0
52477.0,STARLINK-3860,PAYLOAD,2023-09-07 03:38:37,15.08840105,0.0001382,53.2178,194.6436,91.3504,268.7646,2.7461e-05,1.49e-06,0.0,0 STARLINK-3860,1 52477U 22049AC  23250.15182088  .00000149  00000-0  27461-4 0  9995,2 52477  53.2178 194.6436 0001382  91.3504 268.7646 15.08840105 74486,6917.88,95.438,540.701,538.789,0.0
52477.0,STARLINK-3860,PAYLOAD,2023-09-08 05:04:47,15.08846452,0.0001308,53.2178,189.8866,99.8204,260.2936,0.00010324,1.356e-05,0.0,0 STARLINK-3860,1 52477U 22049AC  23251.21165510  .00001356  00000-0  10324-3 0  9994,2 52477  53.2178 189.8866 0001308  99.8204 260.2936 15.08846452 74645,6917.861,95.437,540.631,538.821,0.0
52477.0,STARLINK-3860,PAYLOAD,2023-09-08 20:58:38,15.0884006,0.0001235,53.2187,186.9108,84.8576,275.2557,5.7083e-05,6.21e-06,0.0,0 STARLINK-3860,1 52477U 22049AC  23251.87406147  .00000621  00000-0  57083-4 0  9998,2 52477  53.2187 186.9108 0001235  84.8576 275.2557 15.08840060 75822,6917.88,95.438,540.6,538.891,0.0
52477.0,STARLINK-3860,PAYLOAD,2023-09-09 01:44:47,15.08843844,0.0001492,53.2181,186.0199,92.705,267.4112,0.00010928,1.452e-05,0.0,0 STARLINK-3860,1 52477U 22049AC  23252.07277750  .00001452  00000-0  10928-3 0  9996,2 52477  53.2181 186.0199 0001492  92.7050 267.4112 15.08843844 74773,6917.869,95.437,540.766,538.701,0.0
52477.0,STARLINK-3860,PAYLOAD,2023-09-09 12:52:30,15.08836845,0.0001497,53.2174,183.933,79.1266,280.9895,5.7891e-05,6.33e-06,0.0,0 STARLINK-3860,1 52477U 22049AC  23252.53646329  .00000633  00000-0  57891-4 0  9990,2 52477  53.2174 183.9330 0001497  79.1266 280.9895 15.08836845 75920,6917.89,95.438,540.791,538.719,0.0
52477.0,STARLINK-3860,PAYLOAD,2023-09-10 04:46:21,15.08843867,0.0001428,53.2171,180.9579,86.0429,274.0727,5.7614e-05,6.29e-06,0.0,0 STARLINK-3860,1 52477U 22049AC  23253.19885938  .00000629  00000-0  57614-4 0  9992,2 52477  53.2171 180.9579 0001428  86.0429 274.0727 15.08843867 76023,6917.869,95.437,540.721,538.746,0.0
52477.0,STARLINK-3860,PAYLOAD,2023-09-11 12:34:04,15.0884385,0.0001523,53.2183,175.0132,94.1549,265.9617,8.7726e-06,-1.48e-06,0.0,0 STARLINK-3860,1 52477U 22049AC  23254.52366102 -.00000148  00000-0  87726-5 0  9992,2 52477  53.2183 175.0132 0001523  94.1549 265.9617 15.08843850 76226,6917.869,95.437,540.787,538.68,0.0
52477.0,STARLINK-3860,PAYLOAD,2023-09-12 04:27:55,15.08848881,0.0001421,53.2172,172.0412,93.8512,266.2643,0.00012489,1.701e-05,0.0,0 STARLINK-3860,1 52477U 22049AC  23255.18605583  .00001701  00000-0  12489-3 0  9991,2 52477  53.2172 172.0412 0001421  93.8512 266.2643 15.08848881 76328,6917.853,95.437,540.701,538.735,0.0
52477.0,STARLINK-3860,PAYLOAD,2023-09-13 01:07:56,15.08847405,0.0001282,53.2175,168.176,84.7532,275.3606,9.1607e-05,1.171e-05,0.0,0 STARLINK-3860,1 52477U 22049AC  23256.04717903  .00001171  00000-0  91607-4 0  9998,2 52477  53.2175 168.1760 0001282  84.7532 275.3606 15.08847405 75374,6917.858,95.437,540.61,538.836,0.0
52477.0,STARLINK-3860,PAYLOAD,2023-09-13 04:18:42,15.08850088,0.0001223,53.2173,167.5798,88.6386,271.4746,0.00013021,1.786e-05,0.0,0 STARLINK-3860,1 52477U 22049AC  23256.17965640  .00001786  00000-0  13021-3 0  9990,2 52477  53.2173 167.5798 0001223  88.6386 271.4746 15.08850088 76476,6917.85,95.437,540.561,538.869,0.0
52477.0,STARLINK-3860,PAYLOAD,2023-09-13 21:47:56,15.08849057,0.0001528,53.2174,164.3082,92.2551,267.8616,3.4709e-05,2.65e-06,0.0,0 STARLINK-3860,1 52477U 22049AC  23256.90829733  .00000265  00000-0  34709-4 0  9991,2 52477  53.2174 164.3082 0001528  92.2551 267.8616 15.08849057 76582,6917.853,95.437,540.775,538.661,0.0
52477.0,STARLINK-3860,PAYLOAD,2023-09-14 02:34:05,15.08854263,0.0001402,53.2177,163.42,94.8504,265.2648,0.00014107,1.959e-05,0.0,0 STARLINK-3860,1 52477U 22049AC  23257.10701119  .00001959  00000-0  14107-3 0  9991,2 52477  53.2177 163.4200 0001402  94.8504 265.2648 15.08854263 75530,6917.837,95.437,540.672,538.732,0.0
52477.0,STARLINK-3860,PAYLOAD,2023-09-14 21:38:44,15.08835857,0.0001415,53.2167,159.8486,91.457,268.6584,-0.0001303,-2.361e-05,0.0,0 STARLINK-3860,1 52477U 22049AC  23257.90190305 -.00002361  00000-0 -13030-3 0  9992,2 52477  53.2167 159.8486 0001415  91.4570 268.6584 15.08835857 76731,6917.893,95.438,540.737,538.779,0.0
52477.0,STARLINK-3860,PAYLOAD,2023-09-15 04:00:17,15.08839502,0.0001359,53.2174,158.6593,81.3284,278.7863,-2.1161e-05,-6.25e-06,0.0,0 STARLINK-3860,1 52477U 22049AC  23258.16686693 -.00000625  00000-0 -21161-4 0  9997,2 52477  53.2174 158.6593 0001359  81.3284 278.7863 15.08839502 75699,6917.882,95.438,540.687,538.807,0.0
52477.0,STARLINK-3860,PAYLOAD,2023-09-16 02:15:40,15.08850957,0.0001342,53.2176,154.4967,85.9592,274.1554,3.124e-05,2.09e-06,0.0,0 STARLINK-3860,1 52477U 22049AC  23259.09421932  .00000209  00000-0  31240-4 0  9998,2 52477  53.2176 154.4967 0001342  85.9592 274.1554 15.08850957 75834,6917.847,95.437,540.64,538.784,0.0
52477.0,STARLINK-3860,PAYLOAD,2023-09-17 02:06:28,15.08840248,0.0001443,53.2175,150.0375,85.7748,274.3409,0.00010144,1.327e-05,0.0,0 STARLINK-3860,1 52477U 22049AC  23260.08782827  .00001327  00000-0  10144-3 0  9993,2 52477  53.2175 150.0375 0001443  85.7748 274.3409 15.08840248 75980,6917.88,95.438,540.743,538.746,0.0
52477.0,STARLINK-3860,PAYLOAD,2023-09-18 01:57:14,15.08853253,0.0001391,53.2173,145.5758,95.7645,264.3506,0.00011208,1.497e-05,0.0,0 STARLINK-3860,1 52477U 22049AC  23261.08141867  .00001497  00000-0  11208-3 0  9997,2 52477  53.2173 145.5758 0001391  95.7645 264.3506 15.08853253 76136,6917.84,95.437,540.667,538.743,0.0
52477.0,STARLINK-3860,PAYLOAD,2023-09-18 21:01:53,15.08838764,0.0001518,53.2185,142.0061,93.2563,266.8603,9.1189e-05,1.164e-05,0.0,0 STARLINK-3860,1 52477U 22049AC  23261.87630954  .00001164  00000-0  91189-4 0  9992,2 52477  53.2185 142.0061 0001518  93.2563 266.8603 15.08838764 77339,6917.884,95.438,540.799,538.699,0.0
52477.0,STARLINK-3860,PAYLOAD,2023-09-19 01:48:02,15.08846332,0.0001431,53.2178,141.1151,86.6758,273.4398,8.1299e-05,1.006e-05,0.0,0 STARLINK-3860,1 52477U 22049AC  23262.07502550  .00001006  00000-0  81299-4 0  9991,2 52477  53.2178 141.1151 0001431  86.6758 273.4398 15.08846332 76285,6917.861,95.437,540.716,538.736,0.0
52477.0,STARLINK-3860,PAYLOAD,2023-09-20 01:38:48,15.08864366,0.0001403,53.2161,136.6551,83.8447,276.2705,0.00040131,6.109e-05,0.0,0 STARLINK-3860,1 52477U 22049AC  23263.06861450  .00006109  00000-0  40131-3 0  9996,2 52477  53.2161 136.6551 0001403  83.8447 276.2705 15.08864366 76430,6917.806,95.436,540.641,538.7,0.0
52477.0,STARLINK-3860,PAYLOAD,2023-09-20 19:08:04,15.08824286,0.0001241,53.2158,133.3837,75.7249,284.3881,-0.00028057,-4.748e-05,0.0,0 STARLINK-3860,1 52477U 22049AC  23263.79727310 -.00004748  00000-0 -28057-3 0  9994,2 52477  53.2158 133.3837 0001241  75.7249 284.3881 15.08824286 76541,6917.928,95.439,540.652,538.935,0.0
52477.0,STARLINK-3860,PAYLOAD,2023-09-20 20:43:27,15.08823207,0.0001324,53.2159,133.0871,99.9181,260.1961,-0.0003175,-5.335e-05,0.0,0 STARLINK-3860,1 52477U 22049AC  23263.86351288 -.00005335  00000-0 -31750-3 0  9996,2 52477  53.2159 133.0871 0001324  99.9181 260.1961 15.08823207 77636,6917.932,95.439,540.713,538.881,0.0
52477.0,STARLINK-3860,PAYLOAD,2023-09-21 01:29:37,15.08820645,0.0001276,53.2162,132.1951,73.4054,286.7078,-0.00016198,-2.863e-05,0.0,0 STARLINK-3860,1 52477U 22049AC  23264.06223668 -.00002863  00000-0 -16198-3 0  9991,2 52477  53.2162 132.1951 0001276  73.4054 286.7078 15.08820645 77660,6917.94,95.439,540.687,538.922,0.0
52477.0,STARLINK-3860,PAYLOAD,2023-09-21 18:58:52,15.08835561,0.0001021,53.2161,128.9245,84.3939,275.7169,0.00058677,9.062e-05,0.0,0 STARLINK-3860,1 52477U 22049AC  23264.79088069  .00009062  00000-0  58677-3 0  9999,2 52477  53.2161 128.9245 0001021  84.3939 275.7169 15.08835561 76693,6917.894,95.438,540.465,539.053,0.0
52477.0,STARLINK-3860,PAYLOAD,2023-09-21 22:09:38,15.08846716,0.0001132,53.2163,128.33,103.7195,256.3923,0.00099461,0.0001558,0.0,0 STARLINK-3860,1 52477U 22049AC  23264.92335954  .00015580  00000-0  99461-3 0  9990,2 52477  53.2163 128.3300 0001132 103.7195 256.3923 15.08846716 77793,6917.86,95.437,540.508,538.942,0.0
